{"type":"FeatureCollection","name":"paradas-morelia","features":[{"type":"Feature","properties":{"nombre":"Parabus Periférico - Mármol","rutas":[]},"geometry":{"type":"Point","coordinates":[-101.235215,19.680446]}},{"type":"Feature","properties":{"nombre":null,"rutas":[]},"geometry":{"type":"Point","coordinates":[-101.235168,19.680457]}},{"type":"Feature","properties":{"nombre":null,"rutas":[]},"geometry":{"type":"Point","coordinates":[-101.2275,19.719651]}},{"type":"Feature","properties":{"nombre":"Periférico - Luis Mireles","rutas":[]},"geometry":{"type":"Point","coordinates":[-101.226052,19.676649]}},{"type":"Feature","properties":{"nombre":"Periférico - Salida Pátzcuaro","rutas":[]},"geometry":{"type":"Point","coordinates":[-101.222055,19.676664]}},{"type":"Feature","properties":{"nombre":null,"rutas":[]},"geometry":{"type":"Point","coordinates":[-101.221984,19.671976]}},{"type":"Feature","properties":{"nombre":null,"rutas":[]},"geometry":{"type":"Point","coordinates":[-101.220227,19.674553]}},{"type":"Feature","properties":{"nombre":"Base Ruta Combi Roja 3","rutas":[]},"geometry":{"type":"Point","coordinates":[-101.218635,19.716234]}},{"type":"Feature","properties":{"nombre":"Periférico - Granada","rutas":[]},"geometry":{"type":"Point","coordinates":[-101.217271,19.675514]}},{"type":"Feature","properties":{"nombre":null,"rutas":[]},"geometry":{"type":"Point","coordinates":[-101.216885,19.696852]}},{"type":"Feature","properties":{"nombre":"Parabus Calz. La Huerta-Centro Cosmos","rutas":[]},"geometry":{"type":"Point","coordinates":[-101.216388,19.682847]}},{"type":"Feature","properties":{"nombre":"Periférico - Mamey","rutas":[]},"geometry":{"type":"Point","coordinates":[-101.214427,19.674168]}},{"type":"Feature","properties":{"nombre":"Av. Madero Poniente - Monumento Lázaro Cárdenas","rutas":[]},"geometry":{"type":"Point","coordinates":[-101.207582,19.702276]}},{"type":"Feature","properties":{"nombre":"Periférico - Fuentes de Morelia","rutas":[]},"geometry":{"type":"Point","coordinates":[-101.205282,19.673828]}},{"type":"Feature","properties":{"nombre":"Periférico - Casa de Gobierno","rutas":[]},"geometry":{"type":"Point","coordinates":[-101.20188,19.677792]}},{"type":"Feature","properties":{"nombre":null,"rutas":[]},"geometry":{"type":"Point","coordinates":[-101.195225,19.696445]}},{"type":"Feature","properties":{"nombre":"Periférico - Juárez","rutas":[]},"geometry":{"type":"Point","coordinates":[-101.194528,19.681614]}},{"type":"Feature","properties":{"nombre":null,"rutas":[]},"geometry":{"type":"Point","coordinates":[-101.18976,19.698551]}},{"type":"Feature","properties":{"nombre":null,"rutas":[]},"geometry":{"type":"Point","coordinates":[-101.189678,19.701573]}},{"type":"Feature","properties":{"nombre":"Parada Tecnológico","rutas":[]},"geometry":{"type":"Point","coordinates":[-101.18818,19.720803]}},{"type":"Feature","properties":{"nombre":"Plaza de San Francisco","rutas":[]},"geometry":{"type":"Point","coordinates":[-101.188176,19.701951]}},{"type":"Feature","properties":{"nombre":"Parada Tecnológico entrada Morelia","rutas":[]},"geometry":{"type":"Point","coordinates":[-101.188052,19.721753]}},{"type":"Feature","properties":{"nombre":"Parada del Tecnológico","rutas":[]},"geometry":{"type":"Point","coordinates":[-101.187793,19.72165]}},{"type":"Feature","properties":{"nombre":"Parada del Tecnológico","rutas":[]},"geometry":{"type":"Point","coordinates":[-101.186448,19.720697]}},{"type":"Feature","properties":{"nombre":"Av. Madero Oriente - Isidro Huarte","rutas":[]},"geometry":{"type":"Point","coordinates":[-101.184621,19.702841]}},{"type":"Feature","properties":{"nombre":"Av. Ventura Puente - Alejandro Volta","rutas":[]},"geometry":{"type":"Point","coordinates":[-101.180705,19.685161]}},{"type":"Feature","properties":{"nombre":"Parabús Periférico - Raza Maya","rutas":[]},"geometry":{"type":"Point","coordinates":[-101.17927,19.720374]}},{"type":"Feature","properties":{"nombre":"Periférico - Urícua","rutas":[]},"geometry":{"type":"Point","coordinates":[-101.177197,19.681456]}},{"type":"Feature","properties":{"nombre":"Base Ruta Combi: Naranja 2 (3 de agosto)","rutas":[]},"geometry":{"type":"Point","coordinates":[-101.167511,19.735108]}},{"type":"Feature","properties":{"nombre":"Parada salida charo","rutas":[]},"geometry":{"type":"Point","coordinates":[-101.166213,19.709878]}},{"type":"Feature","properties":{"nombre":"Periférico - Cascada","rutas":[]},"geometry":{"type":"Point","coordinates":[-101.166039,19.683898]}},{"type":"Feature","properties":{"nombre":null,"rutas":[]},"geometry":{"type":"Point","coordinates":[-101.164435,19.710959]}},{"type":"Feature","properties":{"nombre":null,"rutas":[]},"geometry":{"type":"Point","coordinates":[-101.164093,19.710763]}},{"type":"Feature","properties":{"nombre":"Av. Camelinas - Enrique Ramírez","rutas":[]},"geometry":{"type":"Point","coordinates":[-101.158842,19.687651]}},{"type":"Feature","properties":{"nombre":null,"rutas":[]},"geometry":{"type":"Point","coordinates":[-101.152288,19.687993]}},{"type":"Feature","properties":{"nombre":"Parada Plaza Morelia","rutas":[]},"geometry":{"type":"Point","coordinates":[-101.151888,19.68837]}},{"type":"Feature","properties":{"nombre":null,"rutas":[]},"geometry":{"type":"Point","coordinates":[-101.149502,19.6966]}},{"type":"Feature","properties":{"nombre":null,"rutas":[]},"geometry":{"type":"Point","coordinates":[-101.148141,19.694408]}},{"type":"Feature","properties":{"nombre":"Parada campestres","rutas":[]},"geometry":{"type":"Point","coordinates":[-101.126366,19.766661]}}]}