{"type":"FeatureCollection","name":"rutas-demo-morelia","features":[{"type":"Feature","id":"Azul A Soriana-CBTA","properties":{"ref":"Azul A Soriana-CBTA","nombre":"Azul A Soriana-CBTA","variantes":3,"osmid":18097006,"paradas":0,"sin_nombre":false},"geometry":{"type":"MultiLineString","coordinates":[[[-101.2283331,19.6585373],[-101.228907,19.6605752],[-101.2307496,19.6622044],[-101.2322275,19.6645117],[-101.2352988,19.6673214],[-101.2358256,19.6689733],[-101.2357912,19.6695462]],[[-101.2359008,19.669568],[-101.2357912,19.6695462]],[[-101.2368263,19.6677237],[-101.2359008,19.669568]],[[-101.2368263,19.6677237],[-101.2368581,19.667763]],[[-101.2372127,19.6681325],[-101.2368581,19.667763]],[[-101.2394203,19.6677926],[-101.2372127,19.6681325]],[[-101.2409637,19.6714393],[-101.2394203,19.6677926]],[[-101.2409637,19.6714393],[-101.2400519,19.6717876],[-101.2410482,19.6742535],[-101.2409824,19.6747116],[-101.2442812,19.6819225],[-101.2382484,19.6872505],[-101.2380223,19.6872286],[-101.236983,19.684745],[-101.2292616,19.688447],[-101.2258277,19.6913583],[-101.2250583,19.6913832],[-101.2245442,19.6909668],[-101.2190388,19.695766],[-101.2181376,19.6969375],[-101.2127257,19.7018057],[-101.2075193,19.7021489],[-101.2076201,19.7015263],[-101.207013,19.7013209],[-101.205907,19.702244],[-101.2016882,19.7028391],[-101.2018998,19.7043489],[-101.1982716,19.7048779],[-101.185453,19.704533],[-101.1795494,19.7040445],[-101.1768906,19.7052553],[-101.1761448,19.705008],[-101.1725032,19.7049452],[-101.1667764,19.7049759],[-101.1650008,19.7052701],[-101.1639247,19.7029543],[-101.1603418,19.704385],[-101.1499653,19.6962732],[-101.1495126,19.6956725],[-101.1496873,19.6936738],[-101.150803,19.690253],[-101.1528873,19.687879],[-101.1534016,19.6875006],[-101.1538644,19.6874248],[-101.1578541,19.6877698],[-101.1578718,19.6876222],[-101.1574569,19.6875362],[-101.1538223,19.6871475],[-101.1530409,19.6873466],[-101.152479,19.6878612]],[[-101.2409637,19.6714393],[-101.2400519,19.6717876],[-101.2410482,19.6742535],[-101.2409824,19.6747116],[-101.2442812,19.6819225],[-101.2382484,19.6872505],[-101.2380223,19.6872286],[-101.236983,19.684745],[-101.2292616,19.688447],[-101.2258277,19.6913583],[-101.2250583,19.6913832],[-101.2245442,19.6909668],[-101.2190388,19.695766],[-101.2181376,19.6969375],[-101.2127257,19.7018057],[-101.2097047,19.7019998]],[[-101.2075193,19.7021489],[-101.2076201,19.7015263],[-101.207013,19.7013209],[-101.205907,19.702244],[-101.2016882,19.7028391],[-101.2018998,19.7043489],[-101.1984665,19.7048668],[-101.1950022,19.7047832]],[[-101.1940758,19.7047654],[-101.189618,19.7046494]],[[-101.1887336,19.7046252],[-101.1824662,19.7042712]],[[-101.1795494,19.7040445],[-101.1768906,19.7052553],[-101.1761448,19.705008]],[[-101.1752404,19.7049599],[-101.1667764,19.7049759],[-101.1650008,19.7052701],[-101.1639247,19.7029543],[-101.1603418,19.704385],[-101.1512064,19.6972346]],[[-101.1509065,19.6970102],[-101.1495126,19.6956725],[-101.1495153,19.6948689]],[[-101.1495481,19.6945941],[-101.1497415,19.6934817],[-101.1508548,19.6901447],[-101.1531295,19.687662],[-101.1538644,19.6874248],[-101.1578541,19.6877698],[-101.1578718,19.6876222],[-101.1574569,19.6875362],[-101.1538223,19.6871475],[-101.1530409,19.6873466],[-101.152479,19.6878612]],[[-101.1761448,19.705008],[-101.1752404,19.7049599]]]}},{"type":"Feature","id":"Café1","properties":{"ref":"Café1","nombre":"Café1","variantes":1,"osmid":18074092,"paradas":0,"sin_nombre":false},"geometry":{"type":"MultiLineString","coordinates":[[[-101.2272848,19.7200119],[-101.2264024,19.721435],[-101.2243762,19.7200659]],[[-101.2243132,19.7201379],[-101.2243762,19.7200659]],[[-101.2229395,19.7199888],[-101.2243132,19.7201379]],[[-101.2229395,19.7199888],[-101.2229004,19.7214415],[-101.2231806,19.7223522],[-101.2208713,19.7211257],[-101.2168954,19.7183642],[-101.216376,19.7177398],[-101.2156866,19.7151568],[-101.2157592,19.7136143],[-101.2162987,19.7115643],[-101.2157549,19.7103896],[-101.2157268,19.7092609],[-101.2153337,19.7076095],[-101.2162684,19.7036385],[-101.2127257,19.7018057],[-101.2075193,19.7021489],[-101.2076201,19.7015263],[-101.207013,19.7013209],[-101.205907,19.702244],[-101.2016882,19.7028391],[-101.2001421,19.7030345],[-101.1950691,19.702965],[-101.1951122,19.7019116],[-101.1897752,19.7018098],[-101.1897674,19.7020364],[-101.1865993,19.7018711],[-101.1831819,19.702081],[-101.1831359,19.7006258]],[[-101.1821257,19.7005589],[-101.1831359,19.7006258]],[[-101.1821257,19.7005589],[-101.1824625,19.6982626],[-101.1825108,19.6963673],[-101.1806084,19.6962021],[-101.1808149,19.6950294],[-101.1790319,19.6947501]],[[-101.1792282,19.6935399],[-101.1790319,19.6947501]],[[-101.1795759,19.6914013],[-101.1792282,19.6935399]],[[-101.1796977,19.6907699],[-101.1795759,19.6914013]],[[-101.1797139,19.6906713],[-101.1796977,19.6907699]],[[-101.1798414,19.6899791],[-101.1797139,19.6906713]],[[-101.1800748,19.6886953],[-101.1798414,19.6899791]],[[-101.1801526,19.6882916],[-101.1800748,19.6886953]],[[-101.1801615,19.6882453],[-101.1801526,19.6882916]],[[-101.1802089,19.6879997],[-101.1801615,19.6882453]],[[-101.1802219,19.6879322],[-101.1802089,19.6879997]],[[-101.1802859,19.6876003],[-101.1802219,19.6879322]],[[-101.1805696,19.6860743],[-101.1802859,19.6876003]],[[-101.1806336,19.6857378],[-101.1805696,19.6860743]],[[-101.1807915,19.684892],[-101.1806336,19.6857378]],[[-101.1807915,19.684892],[-101.1736883,19.6835197],[-101.1721276,19.6900155],[-101.1608863,19.6877421],[-101.1602205,19.6878995],[-101.1539256,19.6871483],[-101.1530409,19.6873466],[-101.1510047,19.6893862],[-101.150592,19.6900388],[-101.1492981,19.6939128],[-101.1490779,19.695466],[-101.1492085,19.6961106],[-101.149686,19.6967138],[-101.1538486,19.6997377],[-101.1538076,19.7001669],[-101.1531799,19.7002822]],[[-101.1530661,19.7015275],[-101.1531799,19.7002822]],[[-101.1534326,19.7023599],[-101.1530661,19.7015275]],[[-101.1534326,19.7023599],[-101.1527727,19.70263],[-101.1540789,19.7054809]],[[-101.1558761,19.7047532],[-101.1540789,19.7054809]],[[-101.1564387,19.7060574],[-101.1558761,19.7047532]],[[-101.1491002,19.7063402],[-101.1564387,19.7060574]],[[-101.1491002,19.7063402],[-101.146402,19.7104928],[-101.1454367,19.7115193]]]}},{"type":"Feature","id":"Coral 1","properties":{"ref":"Coral 1","nombre":"Coral 1","variantes":2,"osmid":17992187,"paradas":0,"sin_nombre":false},"geometry":{"type":"MultiLineString","coordinates":[[[-101.1399246,19.6846552],[-101.1387545,19.6864255],[-101.1441947,19.6863451],[-101.1480815,19.6859214],[-101.1493001,19.6867051],[-101.14576,19.6872057],[-101.1460476,19.6889186]],[[-101.1478306,19.6882436],[-101.1460476,19.6889186]],[[-101.14845,19.6880114],[-101.1478306,19.6882436]],[[-101.1490789,19.6877757],[-101.14845,19.6880114]],[[-101.1490789,19.6877757],[-101.1503126,19.6907505],[-101.1504988,19.6907914],[-101.1511044,19.6897428],[-101.1534016,19.6875006],[-101.1587555,19.6879187],[-101.1590067,19.6882062],[-101.159323,19.6914113],[-101.1596842,19.6925978],[-101.1588489,19.6954641],[-101.1586258,19.6954461]],[[-101.1586186,19.6955943],[-101.1586258,19.6954461]],[[-101.1586157,19.6956666],[-101.1586186,19.6955943]],[[-101.1584268,19.6975694],[-101.1586157,19.6956666]],[[-101.1559634,19.6974463],[-101.1584268,19.6975694]],[[-101.1559634,19.6974463],[-101.1556072,19.7006296]],[[-101.156033,19.7009984],[-101.1556072,19.7006296]],[[-101.156033,19.7009984],[-101.1605171,19.7001778]],[[-101.1614688,19.7024666],[-101.1605171,19.7001778]],[[-101.1618617,19.7023065],[-101.1614688,19.7024666]],[[-101.1623824,19.7020981],[-101.1618617,19.7023065]],[[-101.1633679,19.7017561],[-101.1623824,19.7020981]],[[-101.1665309,19.7020821],[-101.1633679,19.7017561]],[[-101.1709163,19.7024859],[-101.1665309,19.7020821]],[[-101.1718371,19.7025666],[-101.1709163,19.7024859]],[[-101.1745345,19.7027867],[-101.1718371,19.7025666]],[[-101.1763596,19.7030323],[-101.1745345,19.7027867]],[[-101.1776593,19.7032614],[-101.1763596,19.7030323]],[[-101.1805269,19.7036416],[-101.1776593,19.7032614]],[[-101.1819322,19.7030391],[-101.1805269,19.7036416]],[[-101.1819322,19.7030391],[-101.1823012,19.7029575],[-101.1823753,19.7034476],[-101.1842052,19.7037778],[-101.1941063,19.7038945],[-101.1940639,19.7055952],[-101.2001109,19.7055711],[-101.2017621,19.7067199],[-101.2019633,19.7066981]],[[-101.2024329,19.7069561],[-101.2019633,19.7066981]],[[-101.2043269,19.7075668],[-101.2024329,19.7069561]],[[-101.204492,19.7098039],[-101.2043269,19.7075668]],[[-101.2055229,19.7098519],[-101.204492,19.7098039]],[[-101.2084113,19.7104501],[-101.2055229,19.7098519]],[[-101.2055229,19.7098519],[-101.204492,19.7098039],[-101.2043269,19.7075668],[-101.2032462,19.7073431],[-101.2019633,19.7066981],[-101.2019194,19.7065171],[-101.2017336,19.7065685]],[[-101.200786,19.7060523],[-101.2017336,19.7065685]],[[-101.20049,19.7059073],[-101.200786,19.7060523]],[[-101.2002768,19.7057938],[-101.20049,19.7059073]],[[-101.2001109,19.7055711],[-101.2002768,19.7057938]],[[-101.2001367,19.7046197],[-101.2001109,19.7055711]],[[-101.200145,19.7040609],[-101.2001367,19.7046197]],[[-101.2001421,19.7030345],[-101.200145,19.7040609]],[[-101.2001421,19.7030345],[-101.2001929,19.702061],[-101.1897752,19.7018098],[-101.1897674,19.7020364],[-101.1865993,19.7018711],[-101.1838982,19.7020479],[-101.1839336,19.7029249],[-101.1824214,19.7027255],[-101.1805269,19.7036416],[-101.1754308,19.7028665],[-101.1633679,19.7017561],[-101.1614688,19.7024666],[-101.1605171,19.7001778]],[[-101.1581347,19.7006092],[-101.1605171,19.7001778]],[[-101.1579551,19.7006453],[-101.1581347,19.7006092]],[[-101.1563737,19.7009307],[-101.1579551,19.7006453]],[[-101.156033,19.7009984],[-101.1563737,19.7009307]],[[-101.156033,19.7009984],[-101.1556072,19.7006296]],[[-101.1558503,19.6984703],[-101.1556072,19.7006296]],[[-101.1559634,19.6974463],[-101.1558503,19.6984703]],[[-101.1559634,19.6974463],[-101.1584268,19.6975694],[-101.1586186,19.6955943],[-101.1589149,19.6956157],[-101.159776,19.6927814],[-101.1590568,19.6877628],[-101.1542699,19.6871782],[-101.1532856,19.687242],[-101.1527084,19.6876136],[-101.1510047,19.6893862],[-101.1503126,19.6907505],[-101.1497205,19.6909781],[-101.14845,19.6880114],[-101.1460476,19.6889186]],[[-101.14576,19.6872057],[-101.1460476,19.6889186]],[[-101.1459019,19.6872367],[-101.14576,19.6872057]],[[-101.1493001,19.6867051],[-101.1459019,19.6872367]],[[-101.1493724,19.6866938],[-101.1493001,19.6867051]],[[-101.1493724,19.6866938],[-101.1480107,19.6856583],[-101.143865,19.6861321],[-101.1391624,19.6862019],[-101.1400004,19.6847927]]]}},{"type":"Feature","id":"Coral 2","properties":{"ref":"Coral 2","nombre":"Coral 2","variantes":2,"osmid":18073756,"paradas":0,"sin_nombre":false},"geometry":{"type":"MultiLineString","coordinates":[[[-101.2210747,19.7239982],[-101.2135682,19.7227553],[-101.2120286,19.7108415]],[[-101.2125841,19.7094005],[-101.2119834,19.710442],[-101.2120286,19.7108415]],[[-101.211843,19.7090788],[-101.2125841,19.7094005]],[[-101.211843,19.7090788],[-101.2106494,19.7085968]],[[-101.2101211,19.7084632],[-101.2093526,19.7083379],[-101.2085358,19.7070628],[-101.2083778,19.7064651]],[[-101.2042664,19.7067468],[-101.2079292,19.706481]],[[-101.2043269,19.7075668],[-101.2042664,19.7067468]],[[-101.2043269,19.7075668],[-101.2032462,19.7073431],[-101.2019633,19.7066981],[-101.2019194,19.7065171],[-101.2017336,19.7065685]],[[-101.200786,19.7060523],[-101.2017336,19.7065685]],[[-101.20049,19.7059073],[-101.200786,19.7060523]],[[-101.2001109,19.7055711],[-101.2002768,19.7057938]],[[-101.2001367,19.7046197],[-101.2001109,19.7055711]],[[-101.200145,19.7040609],[-101.2001367,19.7046197]],[[-101.2001421,19.7030345],[-101.200145,19.7040609]],[[-101.2001421,19.7030345],[-101.2001929,19.702061],[-101.1897752,19.7018098],[-101.1897674,19.7020364],[-101.1878576,19.7019465],[-101.1877438,19.6970446]],[[-101.1870661,19.6955766],[-101.1877626,19.6957796]],[[-101.1819135,19.6939954],[-101.1870661,19.6955766]],[[-101.1810424,19.6938419],[-101.1819135,19.6939954]],[[-101.1795759,19.6914013],[-101.1792282,19.6935399]],[[-101.1796977,19.6907699],[-101.1795759,19.6914013]],[[-101.1797139,19.6906713],[-101.1796977,19.6907699]],[[-101.1797139,19.6906713],[-101.1785286,19.6904105],[-101.1760939,19.6908075],[-101.1721276,19.6900155],[-101.1720233,19.6910153],[-101.1628634,19.6895749],[-101.1626313,19.6904306],[-101.1593023,19.6899009],[-101.1590568,19.6877628],[-101.1538223,19.6871475],[-101.1529323,19.6874134],[-101.1510047,19.6893862],[-101.1500513,19.6915053],[-101.1490406,19.6911351]],[[-101.1478306,19.6882436],[-101.1490406,19.6911351]],[[-101.1478306,19.6882436],[-101.1460476,19.6889186]],[[-101.14576,19.6872057],[-101.1460476,19.6889186]],[[-101.1459019,19.6872367],[-101.14576,19.6872057]],[[-101.1493001,19.6867051],[-101.1459019,19.6872367]],[[-101.1493724,19.6866938],[-101.1493001,19.6867051]],[[-101.1493724,19.6866938],[-101.1480107,19.6856583],[-101.143112,19.6861405]],[[-101.1387545,19.6864255],[-101.1456506,19.6861937],[-101.1460476,19.6889186]],[[-101.1478306,19.6882436],[-101.1460476,19.6889186]],[[-101.14845,19.6880114],[-101.1478306,19.6882436]],[[-101.1490789,19.6877757],[-101.14845,19.6880114]],[[-101.1490789,19.6877757],[-101.1504411,19.6907851],[-101.1506554,19.6907181],[-101.1511044,19.6897428],[-101.1528873,19.687879],[-101.1534016,19.6875006],[-101.1538644,19.6874248],[-101.1587555,19.6879187],[-101.1590067,19.6882062],[-101.1591848,19.6899843],[-101.1624943,19.6904396]],[[-101.162277,19.6920677],[-101.1624943,19.6904396]],[[-101.1629031,19.6921194],[-101.162277,19.6920677]],[[-101.1631262,19.690544],[-101.1629031,19.6921194]],[[-101.1631262,19.690544],[-101.1691529,19.6915616],[-101.1709066,19.6916672],[-101.171238,19.6901807],[-101.1760147,19.6911303],[-101.1784427,19.6905957],[-101.1796977,19.6907699],[-101.1792282,19.6935399],[-101.1819135,19.6939954],[-101.1877626,19.6957796],[-101.1899216,19.6959258],[-101.1897247,19.7037997],[-101.1941063,19.7038945],[-101.1940639,19.7055952],[-101.2001109,19.7055711],[-101.2017621,19.7067199],[-101.2019633,19.7066981]],[[-101.2024329,19.7069561],[-101.2019633,19.7066981]],[[-101.2043269,19.7075668],[-101.2024329,19.7069561]],[[-101.2043269,19.7075668],[-101.2042664,19.7067468],[-101.2079292,19.706481],[-101.2088991,19.7083426]],[[-101.2090899,19.7083566],[-101.2088991,19.7083426]],[[-101.2092649,19.7083417],[-101.2090899,19.7083566]],[[-101.2093526,19.7083379],[-101.2092649,19.7083417]],[[-101.2101211,19.7084632],[-101.2093526,19.7083379]],[[-101.2106494,19.7085968],[-101.2101211,19.7084632]],[[-101.2115526,19.708959],[-101.2106494,19.7085968]],[[-101.211612,19.7089862],[-101.2115526,19.708959]],[[-101.2117851,19.7090562],[-101.211612,19.7089862]],[[-101.211843,19.7090788],[-101.2117851,19.7090562]],[[-101.211843,19.7090788],[-101.2125841,19.7094005],[-101.2119834,19.710442],[-101.212003,19.7109466],[-101.2135181,19.7228847],[-101.2166329,19.7231892]],[[-101.2170214,19.7232521],[-101.2166329,19.7231892]],[[-101.2176958,19.7233717],[-101.2170214,19.7232521]],[[-101.2194717,19.7237395],[-101.2176958,19.7233717]],[[-101.2194717,19.7237395],[-101.2214883,19.7241961],[-101.2237306,19.7251101],[-101.223108,19.726161],[-101.2215675,19.725706],[-101.2210747,19.7239982]]]}},{"type":"Feature","id":"Crema 2","properties":{"ref":"Crema 2","nombre":"Crema 2","variantes":1,"osmid":18097056,"paradas":0,"sin_nombre":false},"geometry":{"type":"MultiLineString","coordinates":[[[-101.1638718,19.7243494],[-101.1637278,19.7237356]],[[-101.1654106,19.7233414],[-101.1637278,19.7237356]],[[-101.1652192,19.7223772],[-101.1654106,19.7233414]],[[-101.1651892,19.7222513],[-101.1652192,19.7223772]],[[-101.1645074,19.7184513],[-101.1651892,19.7222513]],[[-101.1643523,19.7177066],[-101.1645074,19.7184513]],[[-101.1643523,19.7177066],[-101.1630978,19.7184588]],[[-101.1619833,19.7167175],[-101.1630978,19.7184588]],[[-101.161457,19.7158871],[-101.1619833,19.7167175]],[[-101.1655595,19.714172],[-101.1637496,19.7146181],[-101.161457,19.7158871]],[[-101.1649097,19.7116051],[-101.1652904,19.7125054],[-101.1655595,19.714172]],[[-101.1645689,19.7108668],[-101.1649097,19.7116051]],[[-101.1645689,19.7108668],[-101.165434,19.7104713],[-101.1659718,19.7106366],[-101.1718156,19.7150209]],[[-101.1723814,19.7154571],[-101.1780647,19.719716],[-101.1789834,19.7202172],[-101.1801217,19.7202021],[-101.1819448,19.7192964],[-101.1828499,19.7191787],[-101.1839049,19.7194396],[-101.1882056,19.7215003],[-101.1883544,19.721156],[-101.185074,19.7196146],[-101.1829569,19.7189401],[-101.181689,19.7191259],[-101.1800813,19.7199548],[-101.1789727,19.7199499],[-101.1750309,19.7171199],[-101.1751539,19.7169778],[-101.1736275,19.715781]],[[-101.1746705,19.7145426],[-101.1736275,19.715781]],[[-101.1746705,19.7145426],[-101.1758628,19.7145041],[-101.176203,19.7150112]],[[-101.1785317,19.7149862],[-101.176203,19.7150112]],[[-101.1786402,19.7132541],[-101.1785317,19.7149862]],[[-101.1786402,19.7132541],[-101.1827307,19.7132604],[-101.1827334,19.709869]],[[-101.1840408,19.7098811],[-101.1827334,19.709869]],[[-101.1853157,19.709866],[-101.1840408,19.7098811]],[[-101.185317,19.7082587],[-101.1853157,19.709866]],[[-101.1863946,19.7082512],[-101.185317,19.7082587]],[[-101.1863946,19.7082512],[-101.1865035,19.7037641],[-101.1887551,19.7037777],[-101.1888151,19.7020152],[-101.1878576,19.7019465],[-101.1878206,19.7008336],[-101.1897944,19.7008948],[-101.1897247,19.7037997]],[[-101.1896726,19.7038007],[-101.1897247,19.7037997]],[[-101.1896726,19.7038007],[-101.189585,19.7051595],[-101.189423,19.7053498]],[[-101.1895907,19.7053488],[-101.189423,19.7053498]],[[-101.1913568,19.7053514],[-101.1895907,19.7053488]],[[-101.1912416,19.7058913],[-101.1913568,19.7053514]],[[-101.1910374,19.7063594],[-101.1912416,19.7058913]],[[-101.1907019,19.7073387],[-101.1910374,19.7063594]],[[-101.1889123,19.7103242],[-101.1907019,19.7073387]],[[-101.1889123,19.7103242],[-101.1884456,19.7104083],[-101.1883956,19.710737],[-101.1891979,19.7109191],[-101.189802,19.710735]],[[-101.1938707,19.710773],[-101.189802,19.710735]],[[-101.1939353,19.7089994],[-101.1938707,19.710773]],[[-101.1939353,19.7089994],[-101.1978031,19.7090216],[-101.1980278,19.7070194]],[[-101.2006379,19.7072046],[-101.200173,19.7067026],[-101.1994675,19.7065133],[-101.1980278,19.7070194]],[[-101.2006379,19.7072046],[-101.2004449,19.7096024]],[[-101.2002335,19.7120128],[-101.2004449,19.7096024]],[[-101.2007626,19.7122692],[-101.2002335,19.7120128]],[[-101.2013846,19.713019],[-101.2007626,19.7122692]],[[-101.2016636,19.7140661],[-101.2017234,19.7138115],[-101.2013846,19.713019]],[[-101.2016318,19.714174],[-101.2016636,19.7140661]],[[-101.2015539,19.7144386],[-101.2016318,19.714174]],[[-101.2015451,19.7144644],[-101.2015539,19.7144386]],[[-101.2015451,19.7144644],[-101.2030844,19.7147759],[-101.2050874,19.720314],[-101.2051865,19.7217774]],[[-101.2052187,19.7218582],[-101.2051865,19.7217774]],[[-101.2055152,19.7219432],[-101.2052187,19.7218582]],[[-101.2055152,19.7219432],[-101.206508,19.7222412],[-101.2095146,19.7224936]],[[-101.2094258,19.7230695],[-101.2095146,19.7224936]],[[-101.2094258,19.7230695],[-101.2123894,19.7234852]],[[-101.2119582,19.7262785],[-101.2123894,19.7234852]],[[-101.2126323,19.7277029],[-101.2119582,19.7262785]],[[-101.212661,19.7277864],[-101.2126323,19.7277029]],[[-101.2128898,19.728324],[-101.212661,19.7277864]],[[-101.2171223,19.7281978],[-101.2140914,19.728473],[-101.2128898,19.728324]],[[-101.2171223,19.7281978],[-101.2169899,19.7289809],[-101.2164617,19.7301167],[-101.2168774,19.7302509],[-101.2157575,19.7310786]],[[-101.2157575,19.7311695],[-101.2157575,19.7310786]],[[-101.2157575,19.7311695],[-101.2144815,19.7310815],[-101.2143234,19.7313393],[-101.2104829,19.7321114],[-101.2108777,19.7338516]]]}},{"type":"Feature","id":"Dorado (Hospitales)","properties":{"ref":"Dorado (Hospitales)","nombre":"Dorado (Hospitales)","variantes":1,"osmid":18015944,"paradas":0,"sin_nombre":false},"geometry":{"type":"MultiLineString","coordinates":[[[-101.1897863,19.7013573],[-101.1897247,19.7037997]],[[-101.1896726,19.7038007],[-101.1897247,19.7037997]],[[-101.1896726,19.7038007],[-101.189618,19.7046494],[-101.184216,19.7044714],[-101.1795494,19.7040445],[-101.1700058,19.7083114],[-101.1662252,19.7098147]],[[-101.1661126,19.7097971],[-101.1655533,19.7098867],[-101.1648855,19.7104574],[-101.1580159,19.7136317],[-101.1380624,19.7284337],[-101.1366028,19.7291209],[-101.135138,19.7294931],[-101.1315724,19.729914]],[[-101.1207709,19.7306156],[-101.115976,19.7310995]],[[-101.1110284,19.73165],[-101.1073604,19.7320231],[-101.1069631,19.7316765],[-101.1060955,19.7298704],[-101.1051838,19.729453],[-101.1041737,19.729599],[-101.1010101,19.7307626],[-101.0956389,19.7299722],[-101.0953587,19.7295754],[-101.0950296,19.7295937],[-101.0933591,19.727332],[-101.0920845,19.7253914],[-101.092159,19.7250795],[-101.0917528,19.7251019]]]}},{"type":"Feature","id":"Gris 4","properties":{"ref":"Gris 4","nombre":"Gris 4","variantes":2,"osmid":18180699,"paradas":0,"sin_nombre":false},"geometry":{"type":"MultiLineString","coordinates":[[[-101.2133194,19.7024352],[-101.2127128,19.7039222],[-101.2119743,19.7082963],[-101.2096186,19.712085],[-101.2086983,19.7129234],[-101.2071364,19.7138275],[-101.2052229,19.7143848],[-101.2035989,19.7144329],[-101.1924665,19.711991],[-101.1903066,19.7119642],[-101.1861107,19.7132529],[-101.1778166,19.7191984],[-101.1666075,19.7106781],[-101.1663325,19.7098703],[-101.1654755,19.7095862],[-101.1630778,19.706787],[-101.1514599,19.6976079],[-101.1497897,19.6960951],[-101.1494905,19.6955487],[-101.1496621,19.6938007],[-101.1509387,19.6899865],[-101.1528873,19.687879],[-101.1535918,19.6874484],[-101.1605249,19.6880498],[-101.1677881,19.6829967],[-101.1687127,19.6825219],[-101.1698636,19.6822277],[-101.1863417,19.6811598],[-101.1872534,19.6812765],[-101.1900775,19.6824573],[-101.1909151,19.6824937],[-101.194636,19.6819375],[-101.1957748,19.6824116],[-101.1961093,19.681604],[-101.1969686,19.6810611],[-101.1988893,19.6812238],[-101.2002102,19.6809903],[-101.20087,19.6806746],[-101.2013769,19.6799338],[-101.2025846,19.6761404],[-101.2030506,19.675432],[-101.2088464,19.67206],[-101.2099414,19.6722279],[-101.2200044,19.6770714],[-101.220466,19.6771764],[-101.2232452,19.6767707],[-101.2294114,19.67697]],[[-101.2297252,19.6770111],[-101.2298416,19.6770417]],[[-101.2303367,19.6772081],[-101.2336628,19.6784377],[-101.2342522,19.6788644],[-101.2368338,19.684817],[-101.2292616,19.688447],[-101.2258277,19.6913583],[-101.2250583,19.6913832],[-101.2245442,19.6909668],[-101.2190388,19.695766],[-101.2181376,19.6969375],[-101.2127257,19.7018057],[-101.2125967,19.7020251],[-101.2133194,19.7024352]],[[-101.21263,19.7020453],[-101.2133194,19.7024352]],[[-101.2125967,19.7020251],[-101.21263,19.7020453]],[[-101.2127257,19.7018057],[-101.2125967,19.7020251]],[[-101.2174052,19.6975848],[-101.2127257,19.7018057]],[[-101.2241732,19.691291],[-101.2190388,19.695766],[-101.2174052,19.6975848]],[[-101.2243657,19.6911253],[-101.2241732,19.691291]],[[-101.2245442,19.6909668],[-101.2243657,19.6911253]],[[-101.2247457,19.6911733],[-101.2245442,19.6909668]],[[-101.2272679,19.6901623],[-101.2258277,19.6913583],[-101.2251718,19.6914178],[-101.2247457,19.6911733]],[[-101.2284995,19.6890245],[-101.2272679,19.6901623]],[[-101.2306177,19.6877908],[-101.2284995,19.6890245]],[[-101.2326058,19.6868417],[-101.2306177,19.6877908]],[[-101.2353382,19.6855356],[-101.2326058,19.6868417]],[[-101.2354519,19.685481],[-101.2353382,19.6855356]],[[-101.2354986,19.6854623],[-101.2354519,19.685481]],[[-101.2365938,19.6849358],[-101.2354986,19.6854623]],[[-101.2336628,19.6784377],[-101.2341664,19.6787696],[-101.2344808,19.6792634],[-101.2368338,19.684817]],[[-101.2316591,19.6776653],[-101.2336628,19.6784377]],[[-101.2303367,19.6772081],[-101.2316591,19.6776653]],[[-101.2259219,19.6768451],[-101.2294114,19.67697]],[[-101.2257324,19.6768404],[-101.2259219,19.6768451]],[[-101.220466,19.6771764],[-101.2227667,19.6767843],[-101.2257324,19.6768404]],[[-101.2197917,19.6769905],[-101.220466,19.6771764]],[[-101.2193409,19.6767696],[-101.2197917,19.6769905]],[[-101.2180528,19.6761841],[-101.2193409,19.6767696]],[[-101.2176534,19.675985],[-101.2180528,19.6761841]],[[-101.2170608,19.6756748],[-101.2176534,19.675985]],[[-101.2051626,19.6741255],[-101.2083772,19.6722113],[-101.2095061,19.6720813],[-101.2170608,19.6756748]],[[-101.2050786,19.6741744],[-101.2051626,19.6741255]],[[-101.2023693,19.6767789],[-101.2030506,19.675432],[-101.2050786,19.6741744]],[[-101.2023209,19.6769286],[-101.2023693,19.6767789]],[[-101.2023075,19.6769782],[-101.2023209,19.6769286]],[[-101.1976706,19.681101],[-101.1984748,19.6812454],[-101.1993561,19.6811511],[-101.2003738,19.6809372],[-101.2010115,19.6805575],[-101.2013769,19.6799338],[-101.2023075,19.6769782]],[[-101.1964884,19.6813001],[-101.1969686,19.6810611],[-101.1976706,19.681101]],[[-101.1959613,19.6821567],[-101.1961093,19.681604],[-101.1964884,19.6813001]],[[-101.1959622,19.6822115],[-101.1959613,19.6821567]],[[-101.1958456,19.6823844],[-101.1959622,19.6822115]],[[-101.1955593,19.6823618],[-101.1958456,19.6823844]],[[-101.1953743,19.682319],[-101.1955593,19.6823618]],[[-101.1920779,19.6823402],[-101.194636,19.6819375],[-101.1953743,19.682319]],[[-101.1918257,19.682378],[-101.1920779,19.6823402]],[[-101.1883052,19.6816897],[-101.1900775,19.6824573],[-101.1918257,19.682378]],[[-101.1863417,19.6811598],[-101.1872534,19.6812765],[-101.1883052,19.6816897]],[[-101.181031,19.6814805],[-101.1863417,19.6811598]],[[-101.1742094,19.6819456],[-101.181031,19.6814805]],[[-101.1709002,19.6821515],[-101.1742094,19.6819456]],[[-101.1660929,19.6841863],[-101.1687127,19.6825219],[-101.1709002,19.6821515]],[[-101.1658427,19.6843674],[-101.1660929,19.6841863]],[[-101.1658031,19.6843914],[-101.1658427,19.6843674]],[[-101.1619379,19.6871032],[-101.1658031,19.6843914]],[[-101.1606692,19.6879891],[-101.1619379,19.6871032]],[[-101.1603665,19.6880798],[-101.1606692,19.6879891]],[[-101.1602303,19.6880866],[-101.1603665,19.6880798]],[[-101.1590896,19.6879568],[-101.1602303,19.6880866]],[[-101.1587555,19.6879187],[-101.1590896,19.6879568]],[[-101.1580241,19.6878355],[-101.1587555,19.6879187]],[[-101.1578039,19.6878104],[-101.1580241,19.6878355]],[[-101.1576469,19.6877926],[-101.1578039,19.6878104]],[[-101.1548696,19.6875253],[-101.1576469,19.6877926]],[[-101.1534016,19.6875006],[-101.1548696,19.6875253]],[[-101.151636,19.6891653],[-101.1534016,19.6875006]],[[-101.1506554,19.6907181],[-101.1509387,19.6899865],[-101.151636,19.6891653]],[[-101.1502014,19.6920219],[-101.1506554,19.6907181]],[[-101.1498966,19.6930108],[-101.1502014,19.6920219]],[[-101.1496189,19.6940731],[-101.1498966,19.6930108]],[[-101.1495481,19.6945941],[-101.1496189,19.6940731]],[[-101.1495153,19.6948689],[-101.1495481,19.6945941]],[[-101.1495126,19.6956725],[-101.1495153,19.6948689]],[[-101.1547999,19.7002098],[-101.1514599,19.6976079]],[[-101.1549162,19.7002965],[-101.1547999,19.7002098]],[[-101.1601706,19.7044822],[-101.1549162,19.7002965]],[[-101.1607783,19.7049259],[-101.1601706,19.7044822]],[[-101.1610386,19.7051266],[-101.1607783,19.7049259]],[[-101.1634765,19.7072095],[-101.1610386,19.7051266]],[[-101.1638628,19.7075268],[-101.1634765,19.7072095]],[[-101.1640188,19.7077262],[-101.1638628,19.7075268]],[[-101.1651585,19.7092394],[-101.1640188,19.7077262]],[[-101.1661126,19.7097971],[-101.1654755,19.7095862],[-101.1651585,19.7092394]],[[-101.1662252,19.7098147],[-101.1661126,19.7097971]],[[-101.1663661,19.7101392],[-101.1662252,19.7098147]],[[-101.1687575,19.7123275],[-101.1666075,19.7106781],[-101.1663661,19.7101392]],[[-101.1695268,19.7130007],[-101.1687575,19.7123275]],[[-101.1720951,19.7148898],[-101.1695268,19.7130007]],[[-101.1748874,19.7170069],[-101.1720951,19.7148898]],[[-101.1750309,19.7171199],[-101.1748874,19.7170069]],[[-101.1766913,19.7183992],[-101.1750309,19.7171199]],[[-101.1768956,19.7185555],[-101.1766913,19.7183992]],[[-101.1770614,19.718669],[-101.1768956,19.7185555]],[[-101.1778166,19.7191984],[-101.1770614,19.718669]],[[-101.1821329,19.716109],[-101.1778166,19.7191984]],[[-101.1882452,19.7125699],[-101.1861107,19.7132529],[-101.1821329,19.716109]],[[-101.2016636,19.7140661],[-101.1920705,19.7119285],[-101.1903066,19.7119642],[-101.1882452,19.7125699]],[[-101.2058308,19.7142516],[-101.2035989,19.7144329],[-101.2016636,19.7140661]],[[-101.2115526,19.708959],[-101.210137,19.7113917],[-101.2091917,19.7125148],[-101.2076879,19.7135624],[-101.2058308,19.7142516]],[[-101.2133194,19.7024352],[-101.2127128,19.7039222],[-101.2120548,19.7080943],[-101.2115526,19.708959]]]}},{"type":"Feature","id":"Naranja 3","properties":{"ref":"Naranja 3","nombre":"Naranja 3","variantes":1,"osmid":17970217,"paradas":0,"sin_nombre":false},"geometry":{"type":"MultiLineString","coordinates":[[[-101.1654432,19.7582905],[-101.1650851,19.7582852],[-101.1652457,19.7585975],[-101.1658272,19.7584556],[-101.1684147,19.7587396],[-101.1686286,19.7586259],[-101.1682926,19.7581735],[-101.1682905,19.7578738],[-101.1697532,19.7547267],[-101.1777862,19.7393721],[-101.1785493,19.7386228],[-101.181809,19.7369796],[-101.1824169,19.7362502],[-101.1827187,19.7350727]],[[-101.1831707,19.7296311],[-101.1836309,19.7263878],[-101.1845243,19.7249235],[-101.185814,19.7238537]],[[-101.1873339,19.722638],[-101.1883544,19.721156],[-101.1886738,19.7186219]],[[-101.1886106,19.7199427],[-101.1888175,19.7164571],[-101.1891241,19.7152871],[-101.188283,19.7116953],[-101.1887582,19.7105863],[-101.1907019,19.7073387]],[[-101.1910374,19.7063594],[-101.1913568,19.7053514],[-101.189423,19.7053498],[-101.1891116,19.7069041],[-101.1905865,19.7062828],[-101.1909551,19.7063455],[-101.1903839,19.7078982],[-101.1888242,19.7103845],[-101.1884456,19.7104083],[-101.1881389,19.7120896]],[[-101.1882452,19.7125699],[-101.1861107,19.7132529],[-101.1821329,19.716109]],[[-101.1822201,19.7162226],[-101.1821329,19.716109]],[[-101.1823348,19.716372],[-101.1822201,19.7162226]],[[-101.1824115,19.7164719],[-101.1823348,19.716372]],[[-101.1824115,19.7164719],[-101.1864739,19.7134406],[-101.1883223,19.7128553],[-101.1884708,19.7133535]],[[-101.1890169,19.7152631],[-101.1887191,19.7164466],[-101.1883482,19.7201865],[-101.1879818,19.7213994],[-101.1872901,19.7222352],[-101.1844347,19.724778],[-101.1833999,19.7266358],[-101.1828966,19.7304146],[-101.1826088,19.7350298],[-101.1823288,19.7361056],[-101.1814266,19.7370696],[-101.1787298,19.7384054],[-101.1776364,19.7392659],[-101.1681537,19.7573992],[-101.1670368,19.7583069],[-101.1654432,19.7582905]],[[-101.1894945,19.7052614],[-101.1887497,19.7051468],[-101.1887336,19.7046252]],[[-101.1887551,19.7037777],[-101.1888151,19.7020152],[-101.1865993,19.7018711],[-101.1865707,19.7010573],[-101.186173,19.6999872]],[[-101.1858,19.6991104],[-101.185716,19.6983603]],[[-101.1857312,19.6968198],[-101.1835846,19.6965182]],[[-101.1825108,19.6963673],[-101.183635,19.6892557],[-101.1879698,19.6904159]],[[-101.1879593,19.6907763],[-101.1879698,19.6904159]],[[-101.1879593,19.6907763],[-101.1839821,19.6901094],[-101.1835846,19.6965182]],[[-101.1837106,19.6983102],[-101.1844354,19.698359]],[[-101.1851811,19.6984025],[-101.1897366,19.698353],[-101.1897558,19.6991692]],[[-101.1897863,19.7013573],[-101.1897799,19.7015856]],[[-101.1897752,19.7018098],[-101.1897247,19.7037997]],[[-101.1896726,19.7038007],[-101.1897247,19.7037997]],[[-101.1896726,19.7038007],[-101.1894945,19.7052614]],[[-101.1713895,19.7431175],[-101.1747948,19.7447004]],[[-101.1713895,19.7431175],[-101.1693167,19.7442641],[-101.1674926,19.7443]],[[-101.1675336,19.7488388],[-101.1674926,19.7443]],[[-101.1651554,19.7477447],[-101.1675336,19.7488388]],[[-101.1651554,19.7477447],[-101.1649629,19.7484181]],[[-101.1827187,19.7350727],[-101.1830331,19.732286]],[[-101.1812818,19.7373242],[-101.1824169,19.7362502],[-101.1827187,19.7350727]],[[-101.18859,19.7201926],[-101.1886738,19.7186219]],[[-101.1886106,19.7199427],[-101.1888175,19.7164571],[-101.1891241,19.7152871],[-101.1885893,19.7133207]],[[-101.1879698,19.6904159],[-101.1883052,19.6816897],[-101.1900775,19.6824573],[-101.1920779,19.6823402]],[[-101.1953743,19.682319],[-101.1955593,19.6823618]],[[-101.1958456,19.6823844],[-101.1959622,19.6822115]],[[-101.1959613,19.6821567],[-101.1961093,19.681604],[-101.1969686,19.6810611],[-101.1988893,19.6812238],[-101.2002102,19.6809903],[-101.20087,19.6806746],[-101.2013769,19.6799338],[-101.2023075,19.6769782]],[[-101.2013168,19.6778573],[-101.2016331,19.6777171],[-101.2022154,19.6769578]],[[-101.1974953,19.6777278],[-101.2013168,19.6778573]],[[-101.1974953,19.6777278],[-101.1974574,19.6758257],[-101.1968814,19.6757697],[-101.1976434,19.6747118],[-101.1979787,19.6730171]],[[-101.1978633,19.6730032],[-101.1979787,19.6730171]],[[-101.1981827,19.6709425],[-101.1978633,19.6730032]],[[-101.1955496,19.6712132],[-101.1963675,19.6709884],[-101.1981827,19.6709425]],[[-101.1955496,19.6712132],[-101.1953607,19.6703759],[-101.1947203,19.6707756],[-101.1940639,19.6705531],[-101.1922337,19.6705306],[-101.1902883,19.6698712],[-101.1904912,19.6703937],[-101.1904344,19.6721124],[-101.188202,19.6722853],[-101.185305,19.6716323],[-101.1855452,19.6707365],[-101.184981,19.6706035]],[[-101.1838376,19.670334],[-101.1821608,19.6699388],[-101.1822991,19.6694032],[-101.1851084,19.6700767],[-101.1847538,19.6715],[-101.1845999,19.6714633]],[[-101.1845562,19.671636],[-101.1845999,19.6714633]],[[-101.1897929,19.673371],[-101.1888476,19.6733467],[-101.1845562,19.671636]],[[-101.1897929,19.673371],[-101.1904411,19.6733664]],[[-101.1904377,19.6727388],[-101.1904411,19.6733664]],[[-101.1904344,19.6721124],[-101.1904377,19.6727388]],[[-101.1978633,19.6730032],[-101.1975404,19.6746953],[-101.1966815,19.675857]],[[-101.1966853,19.6759197],[-101.1966473,19.6793304],[-101.1975065,19.6796687],[-101.1974656,19.6803178],[-101.195142,19.6810847],[-101.1930741,19.6813096],[-101.1924663,19.6815459],[-101.191316,19.6831182],[-101.1907749,19.6833764],[-101.1907358,19.6853709],[-101.1894397,19.6852367]]]}},{"type":"Feature","id":"Roja 2 Villas del Sol","properties":{"ref":"Roja 2 Villas del Sol","nombre":"Roja 2 Villas del Sol","variantes":1,"osmid":17945365,"paradas":0,"sin_nombre":false},"geometry":{"type":"MultiLineString","coordinates":[[[-101.2262023,19.6963855],[-101.2264335,19.6950166]],[[-101.2275988,19.6966063],[-101.2262023,19.6963855]],[[-101.2275988,19.6966063],[-101.2286015,19.6985469],[-101.2296194,19.7034025],[-101.2243418,19.7047432],[-101.219922,19.7053965],[-101.2127257,19.7018057],[-101.2075193,19.7021489],[-101.2076201,19.7015263],[-101.2073354,19.7013236],[-101.207013,19.7013209],[-101.205907,19.702244],[-101.2001421,19.7030345],[-101.1950691,19.702965],[-101.1951122,19.7019116],[-101.1897752,19.7018098],[-101.1897674,19.7020364],[-101.1876696,19.701933],[-101.1876842,19.7028169],[-101.1831818,19.7029465],[-101.1823317,19.702663],[-101.1780313,19.6988785],[-101.1773846,19.6984607],[-101.1759308,19.6980832],[-101.164499,19.6958961],[-101.1634091,19.6958331],[-101.161668,19.6971632],[-101.1604992,19.697111]],[[-101.1604321,19.6977507],[-101.1604992,19.697111]],[[-101.1584268,19.6975694],[-101.1604321,19.6977507]],[[-101.1581347,19.7006092],[-101.1584268,19.6975694]],[[-101.1579551,19.7006453],[-101.1581347,19.7006092]],[[-101.1591202,19.70337],[-101.1579551,19.7006453]],[[-101.1591202,19.70337],[-101.156033,19.7009984]]]}},{"type":"Feature","id":"Roja 3","properties":{"ref":"Roja 3","nombre":"Roja 3","variantes":2,"osmid":17977482,"paradas":0,"sin_nombre":false},"geometry":{"type":"MultiLineString","coordinates":[[[-101.1401269,19.6910887],[-101.1412887,19.6921739],[-101.1433362,19.6922298]],[[-101.1401269,19.6910887],[-101.1412887,19.6921739],[-101.1433362,19.6922298]],[[-101.1352565,19.6874367],[-101.136329,19.6883304],[-101.1365571,19.6895787],[-101.1369793,19.6901169],[-101.1389818,19.6905652],[-101.1401269,19.6910887]],[[-101.1336364,19.6865955],[-101.1352565,19.6874367]],[[-101.1345631,19.6868833],[-101.1336364,19.6865955]],[[-101.1402428,19.6910093],[-101.1390245,19.6903482],[-101.1370416,19.6900181],[-101.1366689,19.6895609],[-101.1365765,19.6886819],[-101.1363088,19.6881372],[-101.1345631,19.6868833]],[[-101.1437356,19.6921612],[-101.143047,19.6919277],[-101.1413391,19.691969],[-101.1402428,19.6910093]],[[-101.1445631,19.6925308],[-101.1441639,19.6923317]],[[-101.1464013,19.6937447],[-101.1445631,19.6925308]],[[-101.1481404,19.6944684],[-101.1472998,19.6942725],[-101.1464013,19.6937447]],[[-101.1492981,19.6939128],[-101.1489233,19.6943975],[-101.1481404,19.6944684]],[[-101.1500513,19.6915053],[-101.1492981,19.6939128]],[[-101.1503126,19.6907505],[-101.1500513,19.6915053]],[[-101.1512371,19.6891581],[-101.1507282,19.6897735],[-101.1503389,19.6906822]],[[-101.1521181,19.6882299],[-101.1512371,19.6891581]],[[-101.152479,19.6878612],[-101.1521181,19.6882299]],[[-101.1534088,19.6872031],[-101.152479,19.6878612]],[[-101.1577014,19.6876007],[-101.1534088,19.6872031]],[[-101.1578718,19.6876222],[-101.1577014,19.6876007]],[[-101.1580146,19.6876382],[-101.1578718,19.6876222]],[[-101.1584748,19.6876932],[-101.1580146,19.6876382]],[[-101.1589611,19.6877514],[-101.1584748,19.6876932]],[[-101.1590568,19.6877628],[-101.1589611,19.6877514]],[[-101.1606398,19.6877509],[-101.1602205,19.6878995],[-101.1590568,19.6877628]],[[-101.1654946,19.6842838],[-101.1617599,19.6869881]],[[-101.1657561,19.6841015],[-101.1654946,19.6842838]],[[-101.1658364,19.6840454],[-101.1657561,19.6841015]],[[-101.1709637,19.6818867],[-101.168515,19.6823276],[-101.1658364,19.6840454]],[[-101.1741276,19.6816773],[-101.1709637,19.6818867]],[[-101.1813171,19.6811893],[-101.1741276,19.6816773]],[[-101.1813171,19.6811893],[-101.1813595,19.6818493],[-101.1807915,19.684892]],[[-101.1802859,19.6876003],[-101.1788064,19.6959616]],[[-101.1782399,19.6989315],[-101.1781075,19.699081],[-101.1822846,19.7029468],[-101.1831818,19.7029465],[-101.1823317,19.702663],[-101.1782399,19.6989315]],[[-101.1433362,19.6922298],[-101.1452544,19.6930593],[-101.1473704,19.6945314],[-101.1491252,19.6948326]],[[-101.1495481,19.6945941],[-101.1496189,19.6940731]],[[-101.1495153,19.6948689],[-101.1495481,19.6945941]],[[-101.1496189,19.6940731],[-101.1506554,19.6907181]],[[-101.151636,19.6891653],[-101.1534016,19.6875006]],[[-101.1548696,19.6875253],[-101.1587555,19.6879187]],[[-101.1590896,19.6879568],[-101.1606692,19.6879891],[-101.1677881,19.6829967],[-101.1694024,19.6823074],[-101.181031,19.6814805],[-101.1813595,19.6818493]],[[-101.2197115,19.716277],[-101.2185719,19.7162315]],[[-101.2201207,19.7162939],[-101.2201338,19.7153973]],[[-101.2197188,19.7153851],[-101.2201338,19.7153973]],[[-101.2196627,19.7153835],[-101.2197188,19.7153851]],[[-101.2197103,19.7146032],[-101.2196627,19.7153835]],[[-101.2188756,19.7115173],[-101.2197103,19.7146032]],[[-101.2186851,19.7109685],[-101.2188756,19.7115173]],[[-101.2184918,19.7105439],[-101.2186851,19.7109685]],[[-101.2184346,19.7104824],[-101.2184918,19.7105439]],[[-101.2182603,19.7099347],[-101.2184346,19.7104824]],[[-101.2181107,19.7093893],[-101.2182603,19.7099347]],[[-101.2180009,19.7090085],[-101.2181107,19.7093893]],[[-101.2157326,19.7100191],[-101.2170217,19.7096369],[-101.2180009,19.7090085]],[[-101.2157326,19.7100191],[-101.2156251,19.7092827]],[[-101.214279,19.7095997],[-101.2156251,19.7092827]],[[-101.214279,19.7095997],[-101.2137475,19.7074517],[-101.2138632,19.7063313],[-101.2147425,19.7049001],[-101.2159193,19.70466]],[[-101.2161295,19.7037738],[-101.2159193,19.70466]],[[-101.2136968,19.7026543],[-101.2157623,19.7037409],[-101.2161295,19.7037738]],[[-101.21339,19.7024752],[-101.2135778,19.7025814]],[[-101.2133194,19.7024352],[-101.21339,19.7024752]],[[-101.21263,19.7020453],[-101.2133194,19.7024352]],[[-101.2125967,19.7020251],[-101.21263,19.7020453]],[[-101.2115776,19.7019782],[-101.2125967,19.7020251]],[[-101.2066408,19.7023104],[-101.208876,19.7021673]],[[-101.2062627,19.7023348],[-101.2066408,19.7023104]],[[-101.2041507,19.7025095],[-101.2062627,19.7023348]],[[-101.2033319,19.7025896],[-101.2041507,19.7025095]],[[-101.2040947,19.7024309],[-101.2033319,19.7025896]],[[-101.2041956,19.702417],[-101.2040947,19.7024309]],[[-101.2046971,19.7023484],[-101.2041956,19.702417]],[[-101.205907,19.702244],[-101.2046971,19.7023484]],[[-101.2069133,19.7014106],[-101.205907,19.702244]],[[-101.207013,19.7013209],[-101.2069133,19.7014106]],[[-101.2160082,19.704675],[-101.2162684,19.7036385],[-101.2127257,19.7018057],[-101.2115903,19.7018535]],[[-101.2097047,19.7019998],[-101.2075193,19.7021489],[-101.2076201,19.7015263],[-101.2072159,19.7013236]],[[-101.2162684,19.7036385],[-101.2137267,19.7023105]],[[-101.1839336,19.7029249],[-101.1831818,19.7029465]],[[-101.1854369,19.7028816],[-101.1839336,19.7029249]],[[-101.1873199,19.7028141],[-101.1854369,19.7028816]],[[-101.1876842,19.7028169],[-101.1873199,19.7028141]],[[-101.1897349,19.7028551],[-101.1879922,19.7028183]],[[-101.1903876,19.7028749],[-101.1897349,19.7028551]],[[-101.1903876,19.7028749],[-101.1903756,19.703818],[-101.1941063,19.7038945]],[[-101.1950253,19.7039012],[-101.1951122,19.7019116],[-101.1876696,19.701933],[-101.1876842,19.7028169]],[[-101.178289,19.6990959],[-101.1781805,19.698998]],[[-101.1968579,19.703001],[-101.1950691,19.702965]],[[-101.2001421,19.7030345],[-101.1968579,19.703001]],[[-101.2016882,19.7028391],[-101.2001421,19.7030345]],[[-101.2033319,19.7025896],[-101.2016882,19.7028391]],[[-101.2156251,19.7092827],[-101.2157326,19.7100191]],[[-101.2197115,19.716277],[-101.2197188,19.7153851]],[[-101.2201207,19.7162939],[-101.2197115,19.716277]],[[-101.2201207,19.7162939],[-101.2201338,19.7153973]],[[-101.2197188,19.7153851],[-101.2201338,19.7153973]],[[-101.2196627,19.7153835],[-101.2197188,19.7153851]],[[-101.2197103,19.7146032],[-101.2196627,19.7153835]],[[-101.2188756,19.7115173],[-101.2197103,19.7146032]],[[-101.2186851,19.7109685],[-101.2188756,19.7115173]],[[-101.2184918,19.7105439],[-101.2186851,19.7109685]],[[-101.2184346,19.7104824],[-101.2184918,19.7105439]],[[-101.2182603,19.7099347],[-101.2184346,19.7104824]],[[-101.2181107,19.7093893],[-101.2182603,19.7099347]],[[-101.2180009,19.7090085],[-101.2181107,19.7093893]],[[-101.2157326,19.7100191],[-101.2170217,19.7096369],[-101.2180009,19.7090085]],[[-101.2157326,19.7100191],[-101.2156251,19.7092827]],[[-101.214279,19.7095997],[-101.2156251,19.7092827]],[[-101.214279,19.7095997],[-101.2137475,19.7074517],[-101.2138632,19.7063313],[-101.2147425,19.7049001],[-101.2150996,19.7047126],[-101.2160082,19.704675],[-101.2162684,19.7036385],[-101.2127257,19.7018057],[-101.2106446,19.7019203]],[[-101.2097047,19.7019998],[-101.2075193,19.7021489],[-101.2076201,19.7015263],[-101.207013,19.7013209],[-101.205907,19.702244],[-101.2001421,19.7030345],[-101.1984425,19.7030396],[-101.1950691,19.702965],[-101.1951122,19.7019116],[-101.1897752,19.7018098],[-101.1897674,19.7020364],[-101.1876696,19.701933],[-101.1876842,19.7028169],[-101.1831818,19.7029465],[-101.1823317,19.702663],[-101.1782399,19.6989315]],[[-101.178676,19.6965845],[-101.1782399,19.6989315]],[[-101.1787619,19.6961692],[-101.178676,19.6965845]],[[-101.1790319,19.6947501],[-101.1788064,19.6959616]],[[-101.1792282,19.6935399],[-101.1790319,19.6947501]],[[-101.1795759,19.6914013],[-101.1792282,19.6935399]],[[-101.1796977,19.6907699],[-101.1795759,19.6914013]],[[-101.1797139,19.6906713],[-101.1796977,19.6907699]],[[-101.1798414,19.6899791],[-101.1797139,19.6906713]],[[-101.1800748,19.6886953],[-101.1798414,19.6899791]],[[-101.1801526,19.6882916],[-101.1800748,19.6886953]],[[-101.1801615,19.6882453],[-101.1801526,19.6882916]],[[-101.1802089,19.6879997],[-101.1801615,19.6882453]],[[-101.1802219,19.6879322],[-101.1802089,19.6879997]],[[-101.1802859,19.6876003],[-101.1802219,19.6879322]],[[-101.1805696,19.6860743],[-101.1802859,19.6876003]],[[-101.1806336,19.6857378],[-101.1805696,19.6860743]],[[-101.1807915,19.684892],[-101.1806336,19.6857378]],[[-101.1813595,19.6818493],[-101.1807915,19.684892]],[[-101.1813362,19.6812716],[-101.1813595,19.6818493]],[[-101.1813171,19.6811893],[-101.1813362,19.6812716]],[[-101.1813171,19.6811893],[-101.170419,19.6819141],[-101.1688915,19.6821833],[-101.1676261,19.6827822],[-101.1604303,19.6878695],[-101.1578718,19.6876222]],[[-101.1577014,19.6876007],[-101.153735,19.6871496],[-101.1530409,19.6873466],[-101.152479,19.6878612]],[[-101.1521181,19.6882299],[-101.1507282,19.6897735],[-101.1492981,19.6939128],[-101.1489233,19.6943975],[-101.1481404,19.6944684],[-101.1472998,19.6942725],[-101.1454953,19.6930124],[-101.1441639,19.6923317]],[[-101.1437356,19.6921612],[-101.143047,19.6919277],[-101.1413391,19.691969],[-101.1404637,19.691143],[-101.1393216,19.6904544],[-101.1370416,19.6900181],[-101.1366689,19.6895609],[-101.1365451,19.6885744],[-101.1361455,19.6879559],[-101.1347366,19.686976],[-101.1336364,19.6865955]]]}},{"type":"Feature","id":"Ruta 2 (Contra Reloj)","properties":{"ref":"Ruta 2 (Contra Reloj)","nombre":"Ruta 2 (Contra Reloj)","variantes":1,"osmid":18090329,"paradas":0,"sin_nombre":false},"geometry":{"type":"MultiLineString","coordinates":[[[-101.2048296,19.6926209],[-101.2036681,19.6911]],[[-101.2036367,19.6910942],[-101.2036681,19.6911]],[[-101.203662,19.6909556],[-101.2036367,19.6910942]],[[-101.203662,19.6909556],[-101.2016037,19.6906213]],[[-101.2003806,19.6901989],[-101.2009632,19.6902188],[-101.2016037,19.6906213]],[[-101.199078,19.690206],[-101.2003806,19.6901989]],[[-101.1955913,19.6902041],[-101.199078,19.690206]],[[-101.1955913,19.6902041],[-101.1957578,19.6826683],[-101.1959622,19.6822115],[-101.195744,19.6814293],[-101.1907841,19.6823455],[-101.1898669,19.6822598],[-101.1874689,19.6811446],[-101.1866998,19.6809862],[-101.1741141,19.6817744],[-101.1721276,19.6900155],[-101.163722,19.6882219],[-101.1608863,19.6877421],[-101.1602205,19.6878995],[-101.1589611,19.6877514],[-101.159323,19.6914113],[-101.1596813,19.6926897],[-101.1588489,19.6954641],[-101.1586258,19.6954461]],[[-101.1586186,19.6955943],[-101.1586258,19.6954461]],[[-101.1586157,19.6956666],[-101.1586186,19.6955943]],[[-101.1584268,19.6975694],[-101.1586157,19.6956666]],[[-101.1581347,19.7006092],[-101.1584268,19.6975694]],[[-101.1581347,19.7006092],[-101.1614548,19.7000073]],[[-101.1623824,19.7020981],[-101.1614548,19.7000073]],[[-101.1633679,19.7017561],[-101.1623824,19.7020981]],[[-101.1665309,19.7020821],[-101.1633679,19.7017561]],[[-101.1709163,19.7024859],[-101.1665309,19.7020821]],[[-101.1718371,19.7025666],[-101.1709163,19.7024859]],[[-101.1718371,19.7025666],[-101.1713598,19.707724]],[[-101.1712543,19.7087464],[-101.1713598,19.707724]],[[-101.1712543,19.7087464],[-101.1756524,19.709],[-101.175194,19.7132475],[-101.1801683,19.7132562],[-101.1801799,19.7124479]],[[-101.1814655,19.7124457],[-101.1801799,19.7124479]],[[-101.1814698,19.7132581],[-101.1814655,19.7124457]],[[-101.1814698,19.7132581],[-101.1840542,19.7132626],[-101.1872129,19.711083],[-101.1881964,19.7107624],[-101.1891979,19.7109191],[-101.189802,19.710735]],[[-101.1938707,19.710773],[-101.189802,19.710735]],[[-101.2013585,19.710843],[-101.1938707,19.710773]],[[-101.2023902,19.7108776],[-101.2013585,19.710843]],[[-101.2045739,19.7109135],[-101.2023902,19.7108776]],[[-101.2045739,19.7109135],[-101.2043269,19.7075668]],[[-101.2063051,19.7079124],[-101.2043269,19.7075668]],[[-101.2059492,19.7025967],[-101.2063051,19.7079124]],[[-101.2059492,19.7025967],[-101.2062627,19.7023348],[-101.2073183,19.7021364],[-101.2079522,19.7009627],[-101.207771,19.7004635],[-101.2084764,19.6980263],[-101.2088911,19.695284]],[[-101.2087644,19.6952684],[-101.2088911,19.695284]],[[-101.2086397,19.6952531],[-101.2087644,19.6952684]],[[-101.2066533,19.6950086],[-101.2086397,19.6952531]],[[-101.2066533,19.6950086],[-101.2069363,19.6929367]],[[-101.2062577,19.692835],[-101.2069363,19.6929367]],[[-101.2048296,19.6926209],[-101.2055758,19.6927327]]]}},{"type":"Feature","id":"Villas del Pedregal 1","properties":{"ref":"Villas del Pedregal 1","nombre":"Villas del Pedregal 1","variantes":2,"osmid":18073901,"paradas":0,"sin_nombre":false},"geometry":{"type":"MultiLineString","coordinates":[[[-101.2164536,19.6965037],[-101.2120813,19.6921375],[-101.208181,19.7003275],[-101.206795,19.7017057],[-101.2067197,19.7021847],[-101.2068624,19.7023032],[-101.2124266,19.7019036],[-101.2192329,19.7054589],[-101.2201216,19.7056288],[-101.2241026,19.7049755],[-101.2434737,19.700495],[-101.2441665,19.700185],[-101.2527285,19.6981144],[-101.2651976,19.6960315],[-101.2795397,19.6914001],[-101.2870411,19.6897449],[-101.2877437,19.6892761],[-101.289167,19.6878346],[-101.2924332,19.6866514],[-101.2962709,19.6865797],[-101.3021404,19.6877607],[-101.3041383,19.6877584]],[[-101.3047321,19.6877924],[-101.3049739,19.6869413],[-101.3049435,19.6860783],[-101.3034073,19.684407],[-101.3039979,19.6839186],[-101.3056029,19.683521],[-101.306778,19.682945],[-101.3073644,19.6823489],[-101.3085152,19.6764902]],[[-101.3084174,19.6762445],[-101.3083571,19.6764417],[-101.3085532,19.6764717],[-101.3085928,19.676302],[-101.3084174,19.6762445]],[[-101.3085489,19.6762569],[-101.3097816,19.6695451]],[[-101.2164536,19.6965037],[-101.2120082,19.6921178],[-101.208181,19.7003275],[-101.206795,19.7017057],[-101.2067197,19.7021847],[-101.2068624,19.7023032],[-101.2124266,19.7019036],[-101.2192329,19.7054589],[-101.2201216,19.7056288],[-101.2241026,19.7049755],[-101.2434737,19.700495],[-101.2441665,19.700185],[-101.2527285,19.6981144],[-101.2644797,19.6962154],[-101.2794254,19.6914374]],[[-101.2795397,19.6914001],[-101.2870411,19.6897449],[-101.2877437,19.6892761],[-101.289167,19.6878346],[-101.2929623,19.6865462],[-101.2962709,19.6865797],[-101.3031019,19.6878197],[-101.3226382,19.6864721],[-101.3312421,19.684423],[-101.3312031,19.684297],[-101.3278096,19.6851193],[-101.3267541,19.6813374],[-101.3263571,19.6747911]]]}}]}